
STRATOSAT-TK 1 (RS52S)  
1 57167U 23091B   25019.45559534  .00036620  00000+0  13767-2 0  9990
2 57167  97.5782  79.5977 0012288  88.7646 271.5000 15.26994563 86380
UMKA 1 (RS40S)          
1 57172U 23091G   25019.44310877  .00009683  00000+0  55701-3 0  9994
2 57172  97.5812  75.6560 0016613 100.4353 259.8750 15.12552383 86126
CUBESX-HSE 3 (RS42S)    
1 57178U 23091N   25019.45480010  .00014275  00000+0  73869-3 0  9996
2 57178  97.5844  76.9804 0016260  92.5523 267.7571 15.16227419 86199
MONITOR-3 (RS58S)       
1 57180U 23091Q   25019.48268883  .00012569  00000+0  67160-3 0  9995
2 57180  97.5842  76.5898 0016872  93.6329 266.6833 15.15115054 86171
MONITOR-4 (RS57S)       
1 57182U 23091S   25019.48267419  .00013483  00000+0  71984-3 0  9996
2 57182  97.5837  76.5495 0016907  94.1129 266.2036 15.15127786 86179
MONITOR-2 (RS39S)       
1 57184U 23091U   25019.43698859  .00009155  00000+0  53560-3 0  9990
2 57184  97.5842  76.0411 0014435  90.9167 269.3717 15.11989252 86136
SVYATOBOR 1 (RS60S)     
1 57187U 23091X   25019.45368246  .00011613  00000+0  61804-3 0  9991
2 57187  97.5841  77.2546 0013425  85.9321 274.3445 15.15324739 86214
VIZARD-METEO (RS38S)    
1 57189U 23091Z   25019.43337840  .00016832  00000+0  81743-3 0  9999
2 57189  97.5832  78.2978 0012013  81.6599 278.5996 15.18467887 86287
NANOZOND 1 (RS49S)      
1 57190U 23091AA  25019.46142785  .00028910  00000+0  11354-2 0  9996
2 57190  97.5793  80.2105 0009458  81.2524 278.9785 15.25622297 86425
POLYTECH-UNIVERSE 3 (R*)
1 57191U 23091AB  25019.44242305  .00008817  00000+0  51446-3 0  9995
2 57191  97.5809  75.6367 0019292 106.4416 253.8936 15.12025373 86124
UTMN 2 (RS27S)          
1 57203U 23091AP  25019.46906696  .00014382  00000+0  72278-3 0  9991
2 57203  97.5832  77.9392 0012580  82.6799 277.5863 15.17302490 86269
ARCCUBE 1 (RS25S)       
1 57205U 23091AR  25019.43534348  .00039781  00000+0  13687-2 0  9999
2 57205  97.5737  80.9574 0008861  79.2015 281.0222 15.29919738 86486
KUZGTU 1 (RS47S)        
1 57217U 23091AV  25019.36733030  .00014586  00000+0  76329-3 0  9992
2 57217  97.5820  76.6041 0016254  94.1956 266.1134 15.15827295 86171
SONATE-2                
1 59112U 24043Q   25018.85899138  .00022023  00000+0  79399-3 0  9996
2 59112  97.4959 148.1139 0011655 257.6567 102.3368 15.28491212 48635
MESAT1                  
1 60209U 24125G   25019.09596336  .00023384  00000+0  83314-3 0  9990
2 60209  97.2953 232.8344 0020809 285.8168  74.0777 15.28719805 30288
OOV-CUBE (TUBSAT-30)    
1 60240U 24128F   25018.96915399  .00004279  00000+0  36534-3 0  9991
2 60240  61.9955 213.7159 0034631  20.0824 340.1619 14.98807282 28924
COLIBRI-S (RS67S)       
1 61746U 24199M   25019.47010577  .00017790  00000+0  67146-3 0  9997
2 61746  97.3782 249.2996 0013351 332.4626  27.5904 15.27001832 58517
HORS 3 (RS81S)          
1 61753U 24199U   25019.47006561  .00023275  00000+0  87135-3 0  9998
2 61753  97.3755 249.2743 0012112 341.3191  18.7602 15.27230888 58517
HORS 4 (RS82S)          
1 61754U 24199V   25019.46047580  .00024310  00000+0  90066-3 0  9992
2 61754  97.3753 249.2859 0012294 341.7305  18.3491 15.27563686 58513
HORIZON (RS59S)         
1 61757U 24199Y   25019.50203522  .00029493  00000+0  10634-2 0  9999
2 61757  97.3781 249.4072 0013066 331.0705  28.9809 15.28409463 58524
SIT-2086                
1 61764U 24199AF  25019.43151835  .00024532  00000+0  89100-3 0  9992
2 61764  97.3758 249.3258 0010560 343.7090  16.3808 15.28235717 55351
MORDOVIA-IOT (RS50S)    
1 61765U 24199AG  25019.46258615  .00033694  00000+0  11671-2 0  9996
2 61765  97.3778 249.4595 0012710 328.1786  31.8685 15.29697486 55370
RUZAEVKA 390 (RS44S)    
1 61766U 24199AH  25019.46805041  .00032548  00000+0  11380-2 0  9992
2 61766  97.3777 249.4494 0012520 327.6848  32.3624 15.29401619 55370
HYPERVIEW 1G (RS66S)    
1 61772U 24199AP  25019.49026767  .00026284  00000+0  98261-3 0  9996
2 61772  97.3754 249.2455 0016223 342.5176  17.5502 15.27196477 55361
ALTAIR (RS65S)          
1 61779U 24199AW  25019.47447650  .00013003  00000+0  51917-3 0  9991
2 61779  97.3763 249.1214 0016613 342.8868  17.1807 15.25153751 58503
ASRTU-1 (AO-123)        
1 61781U 24199AY  25019.48376202  .00012990  00000+0  52129-3 0  9999
2 61781  97.3761 249.1089 0016834 343.2128  16.8551 15.24980016 55356
TUSUR GO (RS78S)        
1 61782U 24199AZ  25019.44189972  .00030365  00000+0  11447-2 0  9995
2 61782  97.3753 249.1605 0017424 341.9554  18.1064 15.26871131 55359
SAMSAT-IONOSPHERE (RS7*)
1 61784U 24199BB  25019.51689859  .00023573  00000+0  90326-3 0  9991
2 61784  97.3757 249.2128 0017245 342.0701  17.9927 15.26384951 58518
RTU MIREA 1 (RS51S)     
1 61785U 24199BC  25019.44885389  .00024193  00000+0  92410-3 0  9995
2 61785  97.3757 249.1515 0017121 341.8795  18.1831 15.26486950 55359
